[{"OBJECT_NAME":"ONEWEB-0179","OBJECT_ID":"2021-031C","EPOCH":"2026-04-19T06:00:02.000160","MEAN_MOTION":13.80080055,"ECCENTRICITY":0.0035863,"INCLINATION":87.896,"RA_OF_ASC_NODE":300.9515,"ARG_OF_PERICENTER":75.7679,"MEAN_ANOMALY":115.4637,"EPHEMERIS_TYPE":0,"CLASSIFICATION_TYPE":"U","NORAD_CAT_ID":48212,"ELEMENT_SET_NO":999,"REV_AT_EPOCH":499,"BSTAR":0.1643,"MEAN_MOTION_DOT":0.0017535,"MEAN_MOTION_DDOT":0.0},{"OBJECT_NAME":"ONEWEB-0180","OBJECT_ID":"2021-031D","EPOCH":"2026-04-19T05:45:37.032480","MEAN_MOTION":13.14515781,"ECCENTRICITY":0.0001786,"INCLINATION":87.893,"RA_OF_ASC_NODE":301.4605,"ARG_OF_PERICENTER":80.4064,"MEAN_ANOMALY":279.7268,"EPHEMERIS_TYPE":0,"CLASSIFICATION_TYPE":"U","NORAD_CAT_ID":48213,"ELEMENT_SET_NO":999,"REV_AT_EPOCH":24047,"BSTAR":-0.0075696,"MEAN_MOTION_DOT":-2.793e-05,"MEAN_MOTION_DDOT":0.0},{"OBJECT_NAME":"ONEWEB-0218","OBJECT_ID":"2021-031E","EPOCH":"2026-04-19T06:17:37.170528","MEAN_MOTION":13.14502378,"ECCENTRICITY":0.0002059,"INCLINATION":87.8929,"RA_OF_ASC_NODE":301.4544,"ARG_OF_PERICENTER":64.3307,"MEAN_ANOMALY":295.8035,"EPHEMERIS_TYPE":0,"CLASSIFICATION_TYPE":"U","NORAD_CAT_ID":48214,"ELEMENT_SET_NO":999,"REV_AT_EPOCH":24063,"BSTAR":-0.00039784000000000005,"MEAN_MOTION_DOT":-1.35e-06,"MEAN_MOTION_DDOT":0.0},{"OBJECT_NAME":"ONEWEB-0209","OBJECT_ID":"2021-031F","EPOCH":"2026-04-19T06:01:38.140032","MEAN_MOTION":13.14501298,"ECCENTRICITY":0.0001514,"INCLINATION":87.8922,"RA_OF_ASC_NODE":301.4802,"ARG_OF_PERICENTER":86.9769,"MEAN_ANOMALY":273.1534,"EPHEMERIS_TYPE":0,"CLASSIFICATION_TYPE":"U","NORAD_CAT_ID":48215,"ELEMENT_SET_NO":999,"REV_AT_EPOCH":24063,"BSTAR":-0.00058076,"MEAN_MOTION_DOT":-2.03e-06,"MEAN_MOTION_DDOT":0.0},{"OBJECT_NAME":"ONEWEB-0198","OBJECT_ID":"2021-031G","EPOCH":"2026-04-19T05:38:59.833536","MEAN_MOTION":13.14502822,"ECCENTRICITY":0.0001598,"INCLINATION":87.8922,"RA_OF_ASC_NODE":301.4835,"ARG_OF_PERICENTER":74.8954,"MEAN_ANOMALY":285.2352,"EPHEMERIS_TYPE":0,"CLASSIFICATION_TYPE":"U","NORAD_CAT_ID":48216,"ELEMENT_SET_NO":999,"REV_AT_EPOCH":24074,"BSTAR":-0.00016293,"MEAN_MOTION_DOT":-4.8e-07,"MEAN_MOTION_DDOT":0.0},{"OBJECT_NAME":"ONEWEB-0189","OBJECT_ID":"2021-031H","EPOCH":"2026-04-19T05:57:03.882240","MEAN_MOTION":13.14502142,"ECCENTRICITY":0.0001638,"INCLINATION":87.8929,"RA_OF_ASC_NODE":301.4603,"ARG_OF_PERICENTER":78.0396,"MEAN_ANOMALY":282.0917,"EPHEMERIS_TYPE":0,"CLASSIFICATION_TYPE":"U","NORAD_CAT_ID":48217,"ELEMENT_SET_NO":999,"REV_AT_EPOCH":24048,"BSTAR":-0.00073003,"MEAN_MOTION_DOT":-2.58e-06,"MEAN_MOTION_DDOT":0.0},{"OBJECT_NAME":"ONEWEB-0196","OBJECT_ID":"2021-031J","EPOCH":"2026-04-19T05:25:06.233376","MEAN_MOTION":13.14503135,"ECCENTRICITY":0.00016,"INCLINATION":87.8933,"RA_OF_ASC_NODE":301.4752,"ARG_OF_PERICENTER":85.207,"MEAN_ANOMALY":274.9242,"EPHEMERIS_TYPE":0,"CLASSIFICATION_TYPE":"U","NORAD_CAT_ID":48218,"ELEMENT_SET_NO":999,"REV_AT_EPOCH":24048,"BSTAR":0.00033150000000000003,"MEAN_MOTION_DOT":1.36e-06,"MEAN_MOTION_DDOT":0.0},{"OBJECT_NAME":"ONEWEB-0183","OBJECT_ID":"2021-031K","EPOCH":"2026-04-19T06:38:10.062240","MEAN_MOTION":13.1450287,"ECCENTRICITY":0.0001619,"INCLINATION":87.8924,"RA_OF_ASC_NODE":301.4641,"ARG_OF_PERICENTER":96.3074,"MEAN_ANOMALY":263.824,"EPHEMERIS_TYPE":0,"CLASSIFICATION_TYPE":"U","NORAD_CAT_ID":48219,"ELEMENT_SET_NO":999,"REV_AT_EPOCH":24058,"BSTAR":0.00019312000000000002,"MEAN_MOTION_DOT":8.4e-07,"MEAN_MOTION_DDOT":0.0},{"OBJECT_NAME":"ONEWEB-0185","OBJECT_ID":"2021-031L","EPOCH":"2026-04-19T05:26:14.955936","MEAN_MOTION":13.14502486,"ECCENTRICITY":0.0001298,"INCLINATION":87.8937,"RA_OF_ASC_NODE":301.4621,"ARG_OF_PERICENTER":93.2693,"MEAN_ANOMALY":266.8585,"EPHEMERIS_TYPE":0,"CLASSIFICATION_TYPE":"U","NORAD_CAT_ID":48220,"ELEMENT_SET_NO":999,"REV_AT_EPOCH":24050,"BSTAR":0.00018752,"MEAN_MOTION_DOT":8.2e-07,"MEAN_MOTION_DDOT":0.0},{"OBJECT_NAME":"ONEWEB-0187","OBJECT_ID":"2021-031M","EPOCH":"2026-04-19T06:47:06.116352","MEAN_MOTION":13.14497737,"ECCENTRICITY":0.0001462,"INCLINATION":87.8914,"RA_OF_ASC_NODE":301.4771,"ARG_OF_PERICENTER":86.1546,"MEAN_ANOMALY":273.9751,"EPHEMERIS_TYPE":0,"CLASSIFICATION_TYPE":"U","NORAD_CAT_ID":48221,"ELEMENT_SET_NO":999,"REV_AT_EPOCH":24052,"BSTAR":0.00041778,"MEAN_MOTION_DOT":1.68e-06,"MEAN_MOTION_DDOT":0.0},{"OBJECT_NAME":"ONEWEB-0192","OBJECT_ID":"2021-031N","EPOCH":"2026-04-19T06:03:54.944928","MEAN_MOTION":13.14501887,"ECCENTRICITY":0.0001758,"INCLINATION":87.8914,"RA_OF_ASC_NODE":301.4711,"ARG_OF_PERICENTER":85.9947,"MEAN_ANOMALY":274.1384,"EPHEMERIS_TYPE":0,"CLASSIFICATION_TYPE":"U","NORAD_CAT_ID":48222,"ELEMENT_SET_NO":999,"REV_AT_EPOCH":24043,"BSTAR":-0.00073544,"MEAN_MOTION_DOT":-2.6e-06,"MEAN_MOTION_DDOT":0.0},{"OBJECT_NAME":"ONEWEB-0219","OBJECT_ID":"2021-031P","EPOCH":"2026-04-19T05:34:13.823616","MEAN_MOTION":13.14502731,"ECCENTRICITY":0.0001448,"INCLINATION":87.8927,"RA_OF_ASC_NODE":301.4652,"ARG_OF_PERICENTER":88.3705,"MEAN_ANOMALY":271.7591,"EPHEMERIS_TYPE":0,"CLASSIFICATION_TYPE":"U","NORAD_CAT_ID":48223,"ELEMENT_SET_NO":999,"REV_AT_EPOCH":24063,"BSTAR":6.8273e-05,"MEAN_MOTION_DOT":3.8e-07,"MEAN_MOTION_DDOT":0.0},{"OBJECT_NAME":"ONEWEB-0202","OBJECT_ID":"2021-031Q","EPOCH":"2026-04-19T01:27:36.465408","MEAN_MOTION":13.14503982,"ECCENTRICITY":0.0001928,"INCLINATION":87.8931,"RA_OF_ASC_NODE":301.5091,"ARG_OF_PERICENTER":69.0272,"MEAN_ANOMALY":291.1064,"EPHEMERIS_TYPE":0,"CLASSIFICATION_TYPE":"U","NORAD_CAT_ID":48224,"ELEMENT_SET_NO":999,"REV_AT_EPOCH":24059,"BSTAR":0.00058309,"MEAN_MOTION_DOT":2.29e-06,"MEAN_MOTION_DDOT":0.0},{"OBJECT_NAME":"ONEWEB-0204","OBJECT_ID":"2021-031R","EPOCH":"2026-04-19T05:55:55.366176","MEAN_MOTION":13.14503169,"ECCENTRICITY":0.0001541,"INCLINATION":87.8931,"RA_OF_ASC_NODE":301.4664,"ARG_OF_PERICENTER":99.0212,"MEAN_ANOMALY":261.1092,"EPHEMERIS_TYPE":0,"CLASSIFICATION_TYPE":"U","NORAD_CAT_ID":48225,"ELEMENT_SET_NO":999,"REV_AT_EPOCH":24051,"BSTAR":-0.00063188,"MEAN_MOTION_DOT":-2.21e-06,"MEAN_MOTION_DDOT":0.0},{"OBJECT_NAME":"ONEWEB-0205","OBJECT_ID":"2021-031S","EPOCH":"2026-04-19T05:20:31.807104","MEAN_MOTION":13.14502508,"ECCENTRICITY":0.0001515,"INCLINATION":87.8931,"RA_OF_ASC_NODE":301.4625,"ARG_OF_PERICENTER":88.2995,"MEAN_ANOMALY":271.8308,"EPHEMERIS_TYPE":0,"CLASSIFICATION_TYPE":"U","NORAD_CAT_ID":48226,"ELEMENT_SET_NO":999,"REV_AT_EPOCH":24052,"BSTAR":0.00050535,"MEAN_MOTION_DOT":2e-06,"MEAN_MOTION_DDOT":0.0},{"OBJECT_NAME":"ONEWEB-0206","OBJECT_ID":"2021-031T","EPOCH":"2026-04-19T06:31:19.935264","MEAN_MOTION":13.14503969,"ECCENTRICITY":0.0001894,"INCLINATION":87.893,"RA_OF_ASC_NODE":301.4555,"ARG_OF_PERICENTER":93.8964,"MEAN_ANOMALY":266.2382,"EPHEMERIS_TYPE":0,"CLASSIFICATION_TYPE":"U","NORAD_CAT_ID":48227,"ELEMENT_SET_NO":999,"REV_AT_EPOCH":24048,"BSTAR":-9.9219e-05,"MEAN_MOTION_DOT":-2.4e-07,"MEAN_MOTION_DDOT":0.0}]