ONEWEB-0179             
1 48212U 21031C   26109.25002315  .00175350  00000+0  16430+0 0  9993
2 48212  87.8960 300.9515 0035863  75.7679 115.4637 13.80080055  4995
ONEWEB-0180             
1 48213U 21031D   26109.24001195 -.00002793  00000+0 -75696-2 0  9992
2 48213  87.8930 301.4605 0001786  80.4064 279.7268 13.14515781240472
ONEWEB-0218             
1 48214U 21031E   26109.26223577 -.00000135  00000+0 -39784-3 0  9992
2 48214  87.8929 301.4544 0002059  64.3307 295.8035 13.14502378240635
ONEWEB-0209             
1 48215U 21031F   26109.25113588 -.00000203  00000+0 -58076-3 0  9993
2 48215  87.8922 301.4802 0001514  86.9769 273.1534 13.14501298240636
ONEWEB-0198             
1 48216U 21031G   26109.23541474 -.00000048  00000+0 -16293-3 0  9993
2 48216  87.8922 301.4835 0001598  74.8954 285.2352 13.14502822240745
ONEWEB-0189             
1 48217U 21031H   26109.24796160 -.00000258  00000+0 -73003-3 0  9994
2 48217  87.8929 301.4603 0001638  78.0396 282.0917 13.14502142240485
ONEWEB-0196             
1 48218U 21031J   26109.22576659  .00000136  00000+0  33150-3 0  9994
2 48218  87.8933 301.4752 0001600  85.2070 274.9242 13.14503135240488
ONEWEB-0183             
1 48219U 21031K   26109.27650535  .00000084  00000+0  19312-3 0  9992
2 48219  87.8924 301.4641 0001619  96.3074 263.8240 13.14502870240584
ONEWEB-0185             
1 48220U 21031L   26109.22656199  .00000082  00000+0  18752-3 0  9996
2 48220  87.8937 301.4621 0001298  93.2693 266.8585 13.14502486240504
ONEWEB-0187             
1 48221U 21031M   26109.28270968  .00000168  00000+0  41778-3 0  9998
2 48221  87.8914 301.4771 0001462  86.1546 273.9751 13.14497737240525
ONEWEB-0192             
1 48222U 21031N   26109.25271927 -.00000260  00000+0 -73544-3 0  9993
2 48222  87.8914 301.4711 0001758  85.9947 274.1384 13.14501887240437
ONEWEB-0219             
1 48223U 21031P   26109.23210444  .00000038  00000+0  68273-4 0  9994
2 48223  87.8927 301.4652 0001448  88.3705 271.7591 13.14502731240635
ONEWEB-0202             
1 48224U 21031Q   26109.06083872  .00000229  00000+0  58309-3 0  9999
2 48224  87.8931 301.5091 0001928  69.0272 291.1064 13.14503982240592
ONEWEB-0204             
1 48225U 21031R   26109.24716859 -.00000221  00000+0 -63188-3 0  9993
2 48225  87.8931 301.4664 0001541  99.0212 261.1092 13.14503169240513
ONEWEB-0205             
1 48226U 21031S   26109.22259036  .00000200  00000+0  50535-3 0  9998
2 48226  87.8931 301.4625 0001515  88.2995 271.8308 13.14502508240525
ONEWEB-0206             
1 48227U 21031T   26109.27175851 -.00000024  00000+0 -99219-4 0  9995
2 48227  87.8930 301.4555 0001894  93.8964 266.2382 13.14503969240482
